{
  "type": "FeatureCollection",
  "features": [
    {
      "type": "Feature",
      "properties": {
        "norad_id": 66907,
        "name": "1998-067XT",
        "group": "last-30-days",
        "lat": 4.929171074584054,
        "lon": -24.99226903484383,
        "alt_km": 411.4870931336436,
        "timestamp": "2025-12-09T09:46:46.423525+00:00",
        "meta_object_name": "1998-067XT",
        "meta_object_id": "1998-067XT",
        "meta_epoch": "2025-12-08T19:06:53.694720",
        "meta_mean_motion": 15.50762002,
        "meta_eccentricity": 0.00049716,
        "meta_inclination": 51.6302,
        "meta_ra_of_asc_node": 161.9586,
        "meta_arg_of_pericenter": 204.3216,
        "meta_mean_anomaly": 155.7539,
        "meta_ephemeris_type": 0,
        "meta_classification_type": "U",
        "meta_norad_cat_id": 66907,
        "meta_element_set_no": 999,
        "meta_rev_at_epoch": 100,
        "meta_bstar": 0.0012614232,
        "meta_mean_motion_dot": 0.00074227,
        "meta_mean_motion_ddot": 0,
        "tle_line1": "1 66907U 98067XT  25342.79645480  .00074227  00000+0  12614-2 0  9994",
        "tle_line2": "2 66907  51.6302 161.9586 0004971 204.3216 155.7539 15.50762002  1006"
      },
      "geometry": {
        "type": "Point",
        "coordinates": [
          -24.99226903484383,
          4.929171074584054
        ]
      }
    },
    {
      "type": "Feature",
      "properties": {
        "norad_id": 66908,
        "name": "1998-067XU",
        "group": "last-30-days",
        "lat": 4.0642888086322,
        "lon": -24.3036961998856,
        "alt_km": 411.32462561690045,
        "timestamp": "2025-12-09T09:46:46.423536+00:00",
        "meta_object_name": "1998-067XU",
        "meta_object_id": "1998-067XU",
        "meta_epoch": "2025-12-08T22:12:12.980736",
        "meta_mean_motion": 15.50818267,
        "meta_eccentricity": 0.0005167,
        "meta_inclination": 51.6297,
        "meta_ra_of_asc_node": 161.3178,
        "meta_arg_of_pericenter": 203.3313,
        "meta_mean_anomaly": 156.7442,
        "meta_ephemeris_type": 0,
        "meta_classification_type": "U",
        "meta_norad_cat_id": 66908,
        "meta_element_set_no": 999,
        "meta_rev_at_epoch": 102,
        "meta_bstar": 0.0011183,
        "meta_mean_motion_dot": 0.00065818,
        "meta_mean_motion_ddot": 0,
        "tle_line1": "1 66908U 98067XU  25342.92515024  .00065818  00000+0  11183-2 0  9996",
        "tle_line2": "2 66908  51.6297 161.3178 0005167 203.3313 156.7442 15.50818267  1027"
      },
      "geometry": {
        "type": "Point",
        "coordinates": [
          -24.3036961998856,
          4.0642888086322
        ]
      }
    },
    {
      "type": "Feature",
      "properties": {
        "norad_id": 66909,
        "name": "SILVERSAT",
        "group": "last-30-days",
        "lat": 3.375435003166565,
        "lon": -23.75695011101036,
        "alt_km": 411.2420467503716,
        "timestamp": "2025-12-09T09:46:46.423549+00:00",
        "meta_object_name": "SILVERSAT",
        "meta_object_id": "1998-067XV",
        "meta_epoch": "2025-12-08T17:33:40.093920",
        "meta_mean_motion": 15.50878297,
        "meta_eccentricity": 0.0005012,
        "meta_inclination": 51.6297,
        "meta_ra_of_asc_node": 162.2763,
        "meta_arg_of_pericenter": 204.4469,
        "meta_mean_anomaly": 155.6283,
        "meta_ephemeris_type": 0,
        "meta_classification_type": "U",
        "meta_norad_cat_id": 66909,
        "meta_element_set_no": 999,
        "meta_rev_at_epoch": 99,
        "meta_bstar": 0.0013404205,
        "meta_mean_motion_dot": 0.00079284,
        "meta_mean_motion_ddot": 0,
        "tle_line1": "1 66909U 98067XV  25342.73171405  .00079284  00000+0  13404-2 0  9997",
        "tle_line2": "2 66909  51.6297 162.2763 0005012 204.4469 155.6283 15.50878297   996"
      },
      "geometry": {
        "type": "Point",
        "coordinates": [
          -23.75695011101036,
          3.375435003166565
        ]
      }
    },
    {
      "type": "Feature",
      "properties": {
        "norad_id": 66910,
        "name": "1998-067XW",
        "group": "last-30-days",
        "lat": -1.6664832366574391,
        "lon": -19.770396064997218,
        "alt_km": 410.2807021131139,
        "timestamp": "2025-12-09T09:46:46.423559+00:00",
        "meta_object_name": "1998-067XW",
        "meta_object_id": "1998-067XW",
        "meta_epoch": "2025-12-08T22:10:28.282080",
        "meta_mean_motion": 15.51110893,
        "meta_eccentricity": 0.0005927,
        "meta_inclination": 51.6296,
        "meta_ra_of_asc_node": 161.31,
        "meta_arg_of_pericenter": 189.6161,
        "meta_mean_anomaly": 170.4716,
        "meta_ephemeris_type": 0,
        "meta_classification_type": "U",
        "meta_norad_cat_id": 66910,
        "meta_element_set_no": 999,
        "meta_rev_at_epoch": 102,
        "meta_bstar": 0.0011401,
        "meta_mean_motion_dot": 0.00067841,
        "meta_mean_motion_ddot": 0,
        "tle_line1": "1 66910U 98067XW  25342.92393845  .00067841  00000+0  11401-2 0  9995",
        "tle_line2": "2 66910  51.6296 161.3100 0005927 189.6161 170.4716 15.51110893  1023"
      },
      "geometry": {
        "type": "Point",
        "coordinates": [
          -19.770396064997218,
          -1.6664832366574391
        ]
      }
    },
    {
      "type": "Feature",
      "properties": {
        "norad_id": 66911,
        "name": "1998-067XX",
        "group": "last-30-days",
        "lat": -2.9315235070649606,
        "lon": -18.768320719981073,
        "alt_km": 410.1482407919766,
        "timestamp": "2025-12-09T09:46:46.423575+00:00",
        "meta_object_name": "1998-067XX",
        "meta_object_id": "1998-067XX",
        "meta_epoch": "2025-12-09T02:48:25.031232",
        "meta_mean_motion": 15.51276016,
        "meta_eccentricity": 0.0005707,
        "meta_inclination": 51.6296,
        "meta_ra_of_asc_node": 160.3494,
        "meta_arg_of_pericenter": 191.2278,
        "meta_mean_anomaly": 168.8584,
        "meta_ephemeris_type": 0,
        "meta_classification_type": "U",
        "meta_norad_cat_id": 66911,
        "meta_element_set_no": 999,
        "meta_rev_at_epoch": 104,
        "meta_bstar": 0.0013712,
        "meta_mean_motion_dot": 0.00082324,
        "meta_mean_motion_ddot": 0,
        "tle_line1": "1 66911U 98067XX  25343.11695638  .00082324  00000+0  13712-2 0  9993",
        "tle_line2": "2 66911  51.6296 160.3494 0005707 191.2278 168.8584 15.51276016  1049"
      },
      "geometry": {
        "type": "Point",
        "coordinates": [
          -18.768320719981073,
          -2.9315235070649606
        ]
      }
    },
    {
      "type": "Feature",
      "properties": {
        "norad_id": 66912,
        "name": "1998-067XY",
        "group": "last-30-days",
        "lat": 6.780212223855808,
        "lon": -26.47441407947691,
        "alt_km": 411.7639745424194,
        "timestamp": "2025-12-09T09:46:46.423586+00:00",
        "meta_object_name": "1998-067XY",
        "meta_object_id": "1998-067XY",
        "meta_epoch": "2025-12-08T19:07:24.190464",
        "meta_mean_motion": 15.50590013,
        "meta_eccentricity": 0.00050406,
        "meta_inclination": 51.6301,
        "meta_ra_of_asc_node": 161.961,
        "meta_arg_of_pericenter": 202.8515,
        "meta_mean_anomaly": 157.2251,
        "meta_ephemeris_type": 0,
        "meta_classification_type": "U",
        "meta_norad_cat_id": 66912,
        "meta_element_set_no": 999,
        "meta_rev_at_epoch": 99,
        "meta_bstar": 0.0010396633,
        "meta_mean_motion_dot": 0.00060617,
        "meta_mean_motion_ddot": 0,
        "tle_line1": "1 66912U 98067XY  25342.79680776  .00060617  00000+0  10397-2 0  9991",
        "tle_line2": "2 66912  51.6301 161.9610 0005040 202.8515 157.2251 15.50590013   998"
      },
      "geometry": {
        "type": "Point",
        "coordinates": [
          -26.47441407947691,
          6.780212223855808
        ]
      }
    },
    {
      "type": "Feature",
      "properties": {
        "norad_id": 66913,
        "name": "2025-284A",
        "group": "last-30-days",
        "lat": -32.23259965212953,
        "lon": -39.88857601224182,
        "alt_km": 511.58460833773916,
        "timestamp": "2025-12-09T09:46:46.423596+00:00",
        "meta_object_name": "2025-284A",
        "meta_object_id": "2025-284A",
        "meta_epoch": "2025-12-09T04:06:07.639200",
        "meta_mean_motion": 15.18811307,
        "meta_eccentricity": 0.0008064,
        "meta_inclination": 80.4054,
        "meta_ra_of_asc_node": 134.2884,
        "meta_arg_of_pericenter": 258.4427,
        "meta_mean_anomaly": 101.5895,
        "meta_ephemeris_type": 0,
        "meta_classification_type": "U",
        "meta_norad_cat_id": 66913,
        "meta_element_set_no": 999,
        "meta_rev_at_epoch": 58,
        "meta_bstar": 0.00063573,
        "meta_mean_motion_dot": 0.00013269,
        "meta_mean_motion_ddot": 0,
        "tle_line1": "1 66913U 25284A   25343.17092175  .00013269  00000+0  63573-3 0  9992",
        "tle_line2": "2 66913  80.4054 134.2884 0008064 258.4427 101.5895 15.18811307   585"
      },
      "geometry": {
        "type": "Point",
        "coordinates": [
          -39.88857601224182,
          -32.23259965212953
        ]
      }
    }
  ]
}